[{"OBJECT_NAME":"STARLINK-35573","OBJECT_ID":"2025-237C","EPOCH":"2026-03-09T07:16:17.175648","MEAN_MOTION":15.30196329,"ECCENTRICITY":0.00013646,"INCLINATION":53.1607,"RA_OF_ASC_NODE":41.2626,"ARG_OF_PERICENTER":85.8081,"MEAN_ANOMALY":274.3075,"EPHEMERIS_TYPE":0,"CLASSIFICATION_TYPE":"U","NORAD_CAT_ID":66116,"ELEMENT_SET_NO":999,"REV_AT_EPOCH":2255,"BSTAR":0.0009216063,"MEAN_MOTION_DOT":0.00027032,"MEAN_MOTION_DDOT":0},{"OBJECT_NAME":"COSMOS 2251 DEB","OBJECT_ID":"1993-036BXP","EPOCH":"2026-03-04T07:23:49.847712","MEAN_MOTION":15.24789556,"ECCENTRICITY":0.00190834,"INCLINATION":73.9759,"RA_OF_ASC_NODE":64.3004,"ARG_OF_PERICENTER":239.4537,"MEAN_ANOMALY":120.4779,"EPHEMERIS_TYPE":0,"CLASSIFICATION_TYPE":"U","NORAD_CAT_ID":47059,"ELEMENT_SET_NO":999,"REV_AT_EPOCH":9543,"BSTAR":0.0048704033,"MEAN_MOTION_DOT":0.00123422,"MEAN_MOTION_DDOT":0}]
